BEIDOU-3 G1 (C59)       
1 43683U 18085A   25078.49743703 -.00000272  00000+0  00000+0 0  9995
2 43683   2.8782 100.4687 0003535 352.1454  43.6651  1.00267390 23502
COSMOS 2529 (757)       
1 43687U 18086A   25078.46907473  .00000038  00000+0  00000+0 0  9992
2 43687  64.2945 207.9536 0008160 257.0944 102.7991  2.13102070 49590
BEIDOU-3 M17 (C36)      
1 43706U 18093A   25077.97086748  .00000024  00000+0  00000+0 0  9995
2 43706  54.1899 197.7403 0007267 289.4826  70.4262  1.86228483 43066
BEIDOU-3 M18 (C37)      
1 43707U 18093B   25078.37093740  .00000024  00000+0  00000+0 0  9991
2 43707  54.1907 197.7185 0006000 328.3945  31.5582  1.86229921 43064
GPS BIII-1  (PRN 04)    
1 43873U 18109A   25077.36929003  .00000018  00000+0  00000+0 0  9994
2 43873  55.4182 110.1881 0033179 197.3963 203.2383  2.00566476 45931
BEIDOU-3 IGSO-1 (C38)   
1 44204U 19023A   25078.30987074 -.00000199  00000+0  00000+0 0  9997
2 44204  58.0513  42.3508 0022177 227.6955 138.1495  1.00272699  2655
BEIDOU-2 G8 (C01)       
1 44231U 19027A   25078.45853267 -.00000239  00000+0  00000+0 0  9998
2 44231   1.4631  74.6201 0005717 252.6657 159.5463  1.00274489 21522
COSMOS 2534 (758)       
1 44299U 19030A   25077.40547461  .00000036  00000+0  00000+0 0  9990
2 44299  64.3678 207.9688 0010012 283.4200 114.7915  2.13102380 45217
BEIDOU-3 IGSO-2 (C39)   
1 44337U 19035A   25076.63604451 -.00000120  00000+0  00000+0 0  9990
2 44337  55.1992 162.8713 0036533 202.1317 155.4770  1.00254723 21082
GPS BIII-2  (PRN 18)    
1 44506U 19056A   25078.18436487 -.00000093  00000+0  00000+0 0  9994
2 44506  55.8049 349.2008 0049176 193.7908 337.4702  2.00561106 40946
BEIDOU-3 M24 (C46)      
1 44542U 19061A   25077.90452460  .00000024  00000+0  00000+0 0  9991
2 44542  54.4174 198.0832 0007866  11.2620 348.7420  1.86229067 37319
BEIDOU-3 M23 (C45)      
1 44543U 19061B   25077.50701767  .00000024  00000+0  00000+0 0  9995
2 44543  54.4163 198.0652 0004595   3.2020   2.9747  1.86229362 37318
BEIDOU-3 IGSO-3 (C40)   
1 44709U 19073A   25076.97167669 -.00000157  00000+0  00000+0 0  9997
2 44709  55.5809 285.8082 0042149 181.6296 178.3696  1.00273277 19889
BEIDOU-3 M22 (C44)      
1 44793U 19078A   25077.21096776 -.00000065  00000+0  00000+0 0  9991
2 44793  54.3419 315.8208 0007208  29.9326 330.1595  1.86232176 36157
BEIDOU-3 M21 (C43)      
1 44794U 19078B   25075.19450294 -.00000071  00000+0  00000+0 0  9993
2 44794  54.3171 315.8615 0005233  23.7798 336.2984  1.86227804 36124
COSMOS 2544 (759)       
1 44850U 19088A   25078.31512313  .00000034  00000+0  00000+0 0  9993
2 44850  65.3184  88.9391 0015666 261.0133  98.8430  2.13102155 41027
BEIDOU-3 M19 (C41)      
1 44864U 19090A   25076.74500966 -.00000007  00000+0  00000+0 0  9998
2 44864  56.1576  77.9246 0020210 286.6263 225.9545  1.86231786 35733
BEIDOU-3 M20 (C42)      
1 44865U 19090B   25076.46410516 -.00000008  00000+0  00000+0 0  9990
2 44865  56.1591  77.9676 0017831 298.1542 115.7737  1.86231723 35719
BEIDOU-3 G2 (C60)       
1 45344U 20017A   25078.62478359 -.00000133  00000+0  00000+0 0  9992
2 45344   2.7195  38.3695 0003041 318.6975 125.2994  1.00271656 18703
COSMOS 2545 (760)       
1 45358U 20018A   25077.10404421 -.00000059  00000+0  00000+0 0  9996
2 45358  64.6161 328.4076 0007962 254.0692 105.9008  2.13102590 38943
BEIDOU-3 G3 (C61)       
1 45807U 20040A   25078.49152917 -.00000346  00000+0  00000+0 0  9992
2 45807   1.3504  61.5458 0003603 326.0702  77.0779  1.00266905 17510
GPS BIII-3  (PRN 23)    
1 45854U 20041A   25078.28521652 -.00000044  00000+0  00000+0 0  9993
2 45854  56.3506  46.6482 0051317 199.8229 346.5644  2.00568341 34918
GALAXY 30 (WAAS/PRN 135)
1 46114U 20056C   25078.15917194  .00000044  00000+0  00000+0 0  9994
2 46114   0.0208 149.8757 0001997 232.2245  87.1378  1.00273031 16733
COSMOS 2547 (705K)      
1 46805U 20075A   25077.28972388  .00000035  00000+0  00000+0 0  9991
2 46805  64.5976 207.6958 0006755 233.6054 126.3124  2.13103070 34198
GPS BIII-4  (PRN 14)    
1 46826U 20078A   25078.57204157  .00000039  00000+0  00000+0 0  9996
2 46826  54.0879 229.2213 0055526 199.2164 165.0702  2.00558805 32398
GPS BIII-5  (PRN 11)    
1 48859U 21054A   25078.09176296 -.00000094  00000+0  00000+0 0  9990
2 48859  55.3352 350.7279 0018591 230.2919 336.1009  2.00569561 27625
QZS-1R (QZSS/PRN 196)   
1 49336U 21096A   25078.35534780 -.00000219  00000+0  00000+0 0  9991
2 49336  36.5149  86.3614 0750706 269.8474  84.9015  1.00284972 12450
GSAT0223 (GALILEO 27)   
1 49809U 21116A   25067.39466414 -.00000111  00000+0  00000+0 0  9990
2 49809  57.2776 354.2471 0002103 279.8168 172.9328  1.70475345 20245
GSAT0224 (GALILEO 28)   
1 49810U 21116B   25078.48169294 -.00000089  00000+0  00000+0 0  9994
2 49810  57.2766 353.9475 0001367 301.1632 228.4726  1.70475753 20457
COSMOS 2557 (706K)      
1 52984U 22075A   25076.04907363 -.00000063  00000+0  00000+0 0  9994
2 52984  64.5508 330.5494 0011852 285.8157  74.1107  2.13101960 20969
COSMOS 2559 (707K)      
1 54031U 22130A   25077.86983349 -.00000060  00000+0  00000+0 0  9997
2 54031  64.5221 330.5938 0005356 229.4205 130.5887  2.13101375 18980
COSMOS 2564 (761)       
1 54377U 22161A   25078.52835766  .00000039  00000+0  00000+0 0  9992
2 54377  64.7396 207.8085 0009043 211.3933 148.5380  2.13102049 17943
GPS BIII-6  (PRN 28)    
1 55268U 23009A   25055.80589204  .00000001  00000+0  00000+0 0  9992
2 55268  55.0899 167.2640 0000971  39.5557 308.9006  2.00545614 15662
BEIDOU-3 G4 (C62)       
1 56564U 23066A   25078.41609209 -.00000105  00000+0  00000+0 0  9991
2 56564   1.4431 290.4982 0002024 206.2266 350.2789  1.00271572  6833
NVS-01 (IRNSS-1J)       
1 56759U 23076A   25078.49526502 -.00000332  00000+0  00000+0 0  9992
2 56759   3.2938 259.5920 0006995  31.1813 194.2357  1.00266944  6556
COSMOS 2569 (703K)      
1 57517U 23114A   25077.60503237  .00000028  00000+0  00000+0 0  9991
2 57517  65.0489  88.0133 0012944 293.1668  66.7300  2.13104123 12559
BEIDOU-3 M28 (C50)      
1 58654U 23207A   25076.88628082 -.00000009  00000+0  00000+0 0  9992
2 58654  55.3451  77.7454 0004972 295.4924  64.4741  1.86232157  8340
BEIDOU-3 M26 (C48)      
1 58655U 23207B   25078.29678215 -.00000001  00000+0  00000+0 0  9995
2 58655  55.3484  77.6834 0005666 281.6845  78.2681  1.86231570  8353
GSAT0225 (GALILEO 29)   
1 59598U 24079A   25077.92760410  .00000032  00000+0  00000+0 0  9991
2 59598  54.8420 113.8155 0003113 248.9957 292.3538  1.70475167  5552
GSAT0227 (GALILEO 30)   
1 59600U 24079C   25078.40213635  .00000033  00000+0  00000+0 0  9992
2 59600  54.8379 113.8017 0000338 206.2591 153.8107  1.70475163  5619
GSAT0232 (GALILEO 32)   
1 61182U 24167A   25074.57163792  .00000011  00000+0  00000+0 0  9996
2 61182  55.3408 233.8937 0002427 185.1841 179.1764  1.70474222  3066
GSAT0226 (GALILEO 31)   
1 61183U 24167B   25078.48582667  .00000033  00000+0  00000+0 0  9991
2 61183  55.3358 233.7923 0001869 128.2122 230.9379  1.70474370  3099
BEIDOU-3 M25 (C47)      
1 61186U 24168B   25078.30143846 -.00000062  00000+0  00000+0 0  9991
2 61186  54.8679 318.0018 0004356 309.6645 171.6604  1.86230346  3310
BEIDOU-3 M27 (C49)      
1 61187U 24168C   25077.16761828 -.00000068  00000+0  00000+0 0  9997
2 61187  54.8643 318.0255 0002924  11.3208 204.6914  1.86230542   761
GPS BIII-7  (PRN 01)    
1 62339U 24242A   25078.29348080 -.00000094  00000+0  00000+0 0  9995
2 62339  54.9889 352.6011 0004810 327.8323 143.4086  2.00557147  2130
NVS-02 (IRNSS-1K)       
1 62850U 25020A   25078.47213781  .00003153  75457-6  24953-3 0  9997
2 62850  20.9851  64.6793 7393014 210.8667  69.1343  2.17203602  1088
